<?xml version="1.0" encoding="UTF-8"?>
<ndm xmlns:xsi="http://www.w3.org/2001/XMLSchema-instance" xsi:noNamespaceSchemaLocation="http://sanaregistry.org/r/ndmxml/ndmxml-1.0-master.xsd"><omm id="CCSDS_OMM_VERS" version="2.0"><header><COMMENT>GENERATED VIA SPACE-TRACK.ORG API</COMMENT><CREATION_DATE>2023-05-21T02:46:43</CREATION_DATE><ORIGINATOR>18 SPCS</ORIGINATOR></header><body><segment><metadata><OBJECT_NAME>COSMOS 2251 DEB</OBJECT_NAME><OBJECT_ID>1993-036NL</OBJECT_ID><CENTER_NAME>EARTH</CENTER_NAME><REF_FRAME>TEME</REF_FRAME><TIME_SYSTEM>UTC</TIME_SYSTEM><MEAN_ELEMENT_THEORY>SGP4</MEAN_ELEMENT_THEORY></metadata><data><meanElements><EPOCH>2023-05-20T21:24:13.484736</EPOCH><MEAN_MOTION>14.13831316</MEAN_MOTION><ECCENTRICITY>0.01085770</ECCENTRICITY><INCLINATION>74.0065</INCLINATION><RA_OF_ASC_NODE>175.0935</RA_OF_ASC_NODE><ARG_OF_PERICENTER>136.1236</ARG_OF_PERICENTER><MEAN_ANOMALY>288.1247</MEAN_ANOMALY></meanElements><tleParameters><EPHEMERIS_TYPE>0</EPHEMERIS_TYPE><CLASSIFICATION_TYPE>U</CLASSIFICATION_TYPE><NORAD_CAT_ID>34314</NORAD_CAT_ID><ELEMENT_SET_NO>999</ELEMENT_SET_NO><REV_AT_EPOCH>73401</REV_AT_EPOCH><BSTAR>0.00033836000000</BSTAR><MEAN_MOTION_DOT>0.00000654</MEAN_MOTION_DOT><MEAN_MOTION_DDOT>0.0000000000000</MEAN_MOTION_DDOT></tleParameters><userDefinedParameters><USER_DEFINED parameter="SEMIMAJOR_AXIS">7224.428</USER_DEFINED><USER_DEFINED parameter="PERIOD">101.851</USER_DEFINED><USER_DEFINED parameter="APOAPSIS">924.733</USER_DEFINED><USER_DEFINED parameter="PERIAPSIS">767.852</USER_DEFINED><USER_DEFINED parameter="OBJECT_TYPE">DEBRIS</USER_DEFINED><USER_DEFINED parameter="RCS_SIZE">SMALL</USER_DEFINED><USER_DEFINED parameter="COUNTRY_CODE">CIS</USER_DEFINED><USER_DEFINED parameter="LAUNCH_DATE">1993-06-16</USER_DEFINED><USER_DEFINED parameter="SITE">PKMTR</USER_DEFINED><USER_DEFINED parameter="DECAY_DATE"/><USER_DEFINED parameter="FILE">3913175</USER_DEFINED><USER_DEFINED parameter="GP_ID">232196772</USER_DEFINED></userDefinedParameters></data></segment></body></omm></ndm>